{
    "satellites": [
        {
            "name": "starlink313",
            "title": "Starlink-313 (G11-12) (new)",
            "tle": [
                "1 70617C 25240AD  25304.82687500 -.01473100  00000+0 -40582-2 0  3042",
                "2 70617  53.1536 307.4083 0000876  74.3096 326.3468 15.94688927    13"
            ],
            "stdMag": 5,
            "noradId": "70617",
            "tleUrl": "http://celestrak.org/NORAD/elements/supplemental/sup-gp.php?FILE=starlink&FORMAT=tle",
            "launchDate": "2025-10-25T14:20:50.000Z",
            "active": true,
            "batch": [
                {
                    "noradId": "70617",
                    "tle": [
                        "1 70617C 25240AD  25304.82687500 -.01473100  00000+0 -40582-2 0  3042",
                        "2 70617  53.1536 307.4083 0000876  74.3096 326.3468 15.94688927    13"
                    ]
                },
                {
                    "noradId": "70612",
                    "tle": [
                        "1 70612C 25240Y   25304.82756944 -.01449400  00000+0 -40376-2 0  3043",
                        "2 70612  53.1537 307.4141 0001104  67.7088 332.3783 15.94452868    16"
                    ]
                },
                {
                    "noradId": "70614",
                    "tle": [
                        "1 70614C 25240AA  25304.83451389 -.01460700  00000+0 -40582-2 0  3046",
                        "2 70614  53.1538 307.3755 0001022  94.4037 347.1124 15.94515007    17"
                    ]
                },
                {
                    "noradId": "70616",
                    "tle": [
                        "1 70616C 25240AC  25304.82895833 -.01442600  00000+0 -40339-2 0  3042",
                        "2 70616  53.1536 307.4101 0001050  62.8563 343.7236 15.94372700    14"
                    ]
                },
                {
                    "noradId": "70613",
                    "tle": [
                        "1 70613C 25240Z   25304.83451389 -.01441400  00000+0 -40470-2 0  3047",
                        "2 70613  53.1535 307.3843 0000914  98.4200 338.8076 15.94295436    10"
                    ]
                },
                {
                    "noradId": "70615",
                    "tle": [
                        "1 70615C 25240AB  25304.82687500 -.01464200  00000+0 -40494-2 0  3043",
                        "2 70615  53.1537 307.4112 0000902  79.8984 319.1766 15.94606004    18"
                    ]
                },
                {
                    "noradId": "70611",
                    "tle": [
                        "1 70611C 25240X   25304.83381944 -.01429600  00000+0 -40431-2 0  3049",
                        "2 70611  53.1535 307.3941 0000799  81.7369 348.4144 15.94144454    15"
                    ]
                },
                {
                    "noradId": "70610",
                    "tle": [
                        "1 70610C 25240W   25304.83520833 -.01433400  00000+0 -40416-2 0  3046",
                        "2 70610  53.1538 307.3844 0000881  88.7860 350.6706 15.94206107    17"
                    ]
                },
                {
                    "noradId": "70609",
                    "tle": [
                        "1 70609C 25240V   25304.82895833 -.01414900  00000+0 -40298-2 0  3040",
                        "2 70609  53.1537 307.4260 0000757  80.5968 318.4123 15.93994536    12"
                    ]
                },
                {
                    "noradId": "70608",
                    "tle": [
                        "1 70608C 25240U   25304.82965278 -.01420300  00000+0 -40314-2 0  3040",
                        "2 70608  53.1538 307.4192 0000960  83.1076 321.3654 15.94065595    18"
                    ]
                },
                {
                    "noradId": "70607",
                    "tle": [
                        "1 70607C 25240T   25304.82895833 -.01410100  00000+0 -40300-2 0  3040",
                        "2 70607  53.1538 307.4289 0000875  78.4334 319.1333 15.93923570    17"
                    ]
                },
                {
                    "noradId": "70606",
                    "tle": [
                        "1 70606C 25240S   25304.82895833 -.01399200  00000+0 -40156-2 0  3045",
                        "2 70606  53.1538 307.4325 0001051  61.3481 334.4455 15.93832400    14"
                    ]
                },
                {
                    "noradId": "70605",
                    "tle": [
                        "1 70605C 25240R   25304.82826389 -.01384500  00000+0 -40036-2 0  3048",
                        "2 70605  53.1540 307.4428 0001077  63.8266 324.7631 15.93672149    16"
                    ]
                },
                {
                    "noradId": "70604",
                    "tle": [
                        "1 70604C 25240Q   25304.82826389 -.01392500  00000+0 -40133-2 0  3044",
                        "2 70604  53.1539 307.4400 0000757  96.9448 293.0521 15.93744884    18"
                    ]
                },
                {
                    "noradId": "70603",
                    "tle": [
                        "1 70603C 25240P   25304.82895833 -.01382800  00000+0 -40128-2 0  3049",
                        "2 70603  53.1541 307.4425 0000772  93.5320 297.6145 15.93602973    10"
                    ]
                },
                {
                    "noradId": "70602",
                    "tle": [
                        "1 70602C 25240N   25304.82687500 -.01371700  00000+0 -39959-2 0  3045",
                        "2 70602  53.1543 307.4568 0000633  78.9845 298.4286 15.93518642    18"
                    ]
                },
                {
                    "noradId": "70601",
                    "tle": [
                        "1 70601C 25240M   25304.83451389 -.01370500  00000+0 -40104-2 0  3040",
                        "2 70601  53.1543 307.4211 0000939  78.1859 341.6224 15.93430713    13"
                    ]
                },
                {
                    "noradId": "70600",
                    "tle": [
                        "1 70600C 25240L   25304.83243056 -.01362700  00000+0 -40018-2 0  3046",
                        "2 70600  53.1542 307.4351 0000732  87.7665 318.4441 15.93353776    14"
                    ]
                },
                {
                    "noradId": "70599",
                    "tle": [
                        "1 70599C 25240K   25304.83243056 -.01351700  00000+0 -39860-2 0  3044",
                        "2 70599  53.1543 307.4389 0001029  67.7309 336.6889 15.93263013    18"
                    ]
                },
                {
                    "noradId": "70598",
                    "tle": [
                        "1 70598C 25240J   25304.83520833 -.01349000  00000+0 -39928-2 0  3049",
                        "2 70598  53.1544 307.4277 0000657  90.3399 328.6110 15.93188844    17"
                    ]
                },
                {
                    "noradId": "70597",
                    "tle": [
                        "1 70597C 25240H   25304.83312500 -.01342400  00000+0 -39858-2 0  3047",
                        "2 70597  53.1545 307.4418 0000672  94.7856 310.7122 15.93120995    15"
                    ]
                },
                {
                    "noradId": "70596",
                    "tle": [
                        "1 70596C 25240G   25304.83520833 -.01334000  00000+0 -39780-2 0  3047",
                        "2 70596  53.1542 307.4345 0000747  87.2913 328.4252 15.93029204    15"
                    ]
                },
                {
                    "noradId": "70595",
                    "tle": [
                        "1 70595C 25240F   25304.83451389 -.01324200  00000+0 -39639-2 0  3049",
                        "2 70595  53.1544 307.4417 0001026  60.9904 348.9968 15.92944450    14"
                    ]
                },
                {
                    "noradId": "70594",
                    "tle": [
                        "1 70594C 25240E   25304.83451389 -.01319600  00000+0 -39623-2 0  3049",
                        "2 70594  53.1547 307.4446 0001000  62.3027 346.3229 15.92880858    15"
                    ]
                },
                {
                    "noradId": "70593",
                    "tle": [
                        "1 70593C 25240D   25304.82618056 -.01311800  00000+0 -39495-2 0  3044",
                        "2 70593  53.1545 307.4904 0000829  77.8240 281.2945 15.92820820    12"
                    ]
                },
                {
                    "noradId": "70592",
                    "tle": [
                        "1 70592C 25240C   25304.83034722 -.01304500  00000+0 -39441-2 0  3046",
                        "2 70592  53.1546 307.4726 0000687  83.1341 298.3271 15.92732570    13"
                    ]
                },
                {
                    "noradId": "70591",
                    "tle": [
                        "1 70591C 25240B   25304.81506944 -.01300700  00000+0 -39393-2 0  3047",
                        "2 70591  53.1545 307.5538 0000759  77.9309 214.2631 15.92696105    18"
                    ]
                },
                {
                    "noradId": "70590",
                    "tle": [
                        "1 70590C 25240A   25304.82687500 -.01302600  00000+0 -39646-2 0  3047",
                        "2 70590  53.1545 307.4972 0000695  78.8619 279.4096 15.92601273    11"
                    ]
                }
            ]
        }
    ],
    "config": {}
}